HULIANWANG DIGUI-33     
1 64286U 25121D   26085.49545772  .00000063  00000+0  11246-3 0  9996
2 64286  86.5008  41.4891 0001940  71.0800 289.0544 13.24408680 39215
HULIANWANG DIGUI-34     
1 64287U 25121E   26085.48796708  .00000050  00000+0  82384-4 0  9991
2 64287  86.4986  41.4190 0001929  61.9097 298.2232 13.24408260 39215
HULIANWANG DIGUI-35     
1 64956U 25159A   26085.52997947  .00000027  00000+0  28417-4 0  9999
2 64956  86.4942 310.3786 0001359  94.4882 265.6407 13.24418792 32181
HULIANWANG DIGUI-36     
1 64957U 25159B   26085.52219021  .00000028  00000+0  32105-4 0  9990
2 64957  86.4962 310.4230 0001351  90.8502 269.2787 13.24421434 32188
HULIANWANG DIGUI-37     
1 64958U 25159C   26085.51465417  .00000036  00000+0  48812-4 0  9993
2 64958  86.4903 310.2755 0001314  86.6984 273.4301 13.24420985 32189
HULIANWANG DIGUI-38     
1 64959U 25159D   26085.50711688  .00000055  00000+0  92865-4 0  9995
2 64959  86.4962 310.4158 0001368  88.2555 271.8736 13.24421205 32185
HULIANWANG DIGUI-39     
1 64960U 25159E   26085.49954661  .00000061  00000+0  10682-3 0  9998
2 64960  86.4938 310.3532 0001405  88.2993 271.8302 13.24421352 32185
HULIANWANG DIGUI-40     
1 65043U 25162A   26085.46886940 -.00000092  00000+0  69508-4 0  9993
2 65043  49.9990 202.6406 0000957 152.6835 207.4088 13.29333725 32340
HULIANWANG DIGUI-41     
1 65044U 25162B   26085.46051146 -.00000086  00000+0  82767-4 0  9991
2 65044  50.0000 202.6159 0001000 151.3791 208.7136 13.29334169 32350
HULIANWANG DIGUI-42     
1 65045U 25162C   26085.45213645 -.00000088  00000+0  77799-4 0  9996
2 65045  49.9965 202.5051 0000940 153.5349 206.5571 13.29333536 32359
HULIANWANG DIGUI-43     
1 65046U 25162D   26085.44374729 -.00000092  00000+0  69544-4 0  9991
2 65046  49.9982 202.4961 0000925 152.6726 207.4195 13.29334636 32354
HULIANWANG DIGUI-44     
1 65047U 25162E   26085.51016602 -.00000081  00000+0  93664-4 0  9991
2 65047  50.0010 202.2330 0000498  49.2790 310.8125 13.29342224 32371
HULIANWANG DIGUI-45     
1 65048U 25162F   26085.50226133 -.00000082  00000+0  89574-4 0  9999
2 65048  50.0040 202.2503 0000980 152.9279 207.1644 13.29334678 32364
HULIANWANG DIGUI-46     
1 65049U 25162G   26085.49390892 -.00000076  00000+0  10453-3 0  9994
2 65049  50.0057 202.2423 0000995 155.0986 204.9934 13.29334596 32365
HULIANWANG DIGUI-47     
1 65050U 25162H   26085.48555087 -.00000093  00000+0  66596-4 0  9993
2 65050  50.0022 202.1312 0000982 156.4741 203.6176 13.29334371 32360
HULIANWANG DIGUI-48     
1 65051U 25162J   26085.47722845 -.00000098  00000+0  57078-4 0  9991
2 65051  50.0032 202.1066 0000962 154.0322 206.0598 13.29333805 32361
