[{"OBJECT_NAME":"HULIANWANG DIGUI-33","OBJECT_ID":"2025-121D","EPOCH":"2026-03-26T11:53:27.547008","MEAN_MOTION":13.2440868,"ECCENTRICITY":0.000194,"INCLINATION":86.5008,"RA_OF_ASC_NODE":41.4891,"ARG_OF_PERICENTER":71.08,"MEAN_ANOMALY":289.0544,"EPHEMERIS_TYPE":0,"CLASSIFICATION_TYPE":"U","NORAD_CAT_ID":64286,"ELEMENT_SET_NO":999,"REV_AT_EPOCH":3921,"BSTAR":0.00011246,"MEAN_MOTION_DOT":6.3e-7,"MEAN_MOTION_DDOT":0},{"OBJECT_NAME":"HULIANWANG DIGUI-34","OBJECT_ID":"2025-121E","EPOCH":"2026-03-26T11:42:40.355712","MEAN_MOTION":13.2440826,"ECCENTRICITY":0.0001929,"INCLINATION":86.4986,"RA_OF_ASC_NODE":41.419,"ARG_OF_PERICENTER":61.9097,"MEAN_ANOMALY":298.2232,"EPHEMERIS_TYPE":0,"CLASSIFICATION_TYPE":"U","NORAD_CAT_ID":64287,"ELEMENT_SET_NO":999,"REV_AT_EPOCH":3921,"BSTAR":8.2384e-5,"MEAN_MOTION_DOT":5.0e-7,"MEAN_MOTION_DDOT":0},{"OBJECT_NAME":"HULIANWANG DIGUI-35","OBJECT_ID":"2025-159A","EPOCH":"2026-03-26T12:43:10.226208","MEAN_MOTION":13.24418792,"ECCENTRICITY":0.0001359,"INCLINATION":86.4942,"RA_OF_ASC_NODE":310.3786,"ARG_OF_PERICENTER":94.4882,"MEAN_ANOMALY":265.6407,"EPHEMERIS_TYPE":0,"CLASSIFICATION_TYPE":"U","NORAD_CAT_ID":64956,"ELEMENT_SET_NO":999,"REV_AT_EPOCH":3218,"BSTAR":2.8417e-5,"MEAN_MOTION_DOT":2.7e-7,"MEAN_MOTION_DDOT":0},{"OBJECT_NAME":"HULIANWANG DIGUI-36","OBJECT_ID":"2025-159B","EPOCH":"2026-03-26T12:31:57.234144","MEAN_MOTION":13.24421434,"ECCENTRICITY":0.0001351,"INCLINATION":86.4962,"RA_OF_ASC_NODE":310.423,"ARG_OF_PERICENTER":90.8502,"MEAN_ANOMALY":269.2787,"EPHEMERIS_TYPE":0,"CLASSIFICATION_TYPE":"U","NORAD_CAT_ID":64957,"ELEMENT_SET_NO":999,"REV_AT_EPOCH":3218,"BSTAR":3.2105e-5,"MEAN_MOTION_DOT":2.8e-7,"MEAN_MOTION_DDOT":0},{"OBJECT_NAME":"HULIANWANG DIGUI-37","OBJECT_ID":"2025-159C","EPOCH":"2026-03-26T12:21:06.120288","MEAN_MOTION":13.24420985,"ECCENTRICITY":0.0001314,"INCLINATION":86.4903,"RA_OF_ASC_NODE":310.2755,"ARG_OF_PERICENTER":86.6984,"MEAN_ANOMALY":273.4301,"EPHEMERIS_TYPE":0,"CLASSIFICATION_TYPE":"U","NORAD_CAT_ID":64958,"ELEMENT_SET_NO":999,"REV_AT_EPOCH":3218,"BSTAR":4.8812e-5,"MEAN_MOTION_DOT":3.6e-7,"MEAN_MOTION_DDOT":0},{"OBJECT_NAME":"HULIANWANG DIGUI-38","OBJECT_ID":"2025-159D","EPOCH":"2026-03-26T12:10:14.898432","MEAN_MOTION":13.24421205,"ECCENTRICITY":0.0001368,"INCLINATION":86.4962,"RA_OF_ASC_NODE":310.4158,"ARG_OF_PERICENTER":88.2555,"MEAN_ANOMALY":271.8736,"EPHEMERIS_TYPE":0,"CLASSIFICATION_TYPE":"U","NORAD_CAT_ID":64959,"ELEMENT_SET_NO":999,"REV_AT_EPOCH":3218,"BSTAR":9.2865e-5,"MEAN_MOTION_DOT":5.5e-7,"MEAN_MOTION_DDOT":0},{"OBJECT_NAME":"HULIANWANG DIGUI-39","OBJECT_ID":"2025-159E","EPOCH":"2026-03-26T11:59:20.827104","MEAN_MOTION":13.24421352,"ECCENTRICITY":0.0001405,"INCLINATION":86.4938,"RA_OF_ASC_NODE":310.3532,"ARG_OF_PERICENTER":88.2993,"MEAN_ANOMALY":271.8302,"EPHEMERIS_TYPE":0,"CLASSIFICATION_TYPE":"U","NORAD_CAT_ID":64960,"ELEMENT_SET_NO":999,"REV_AT_EPOCH":3218,"BSTAR":0.00010682,"MEAN_MOTION_DOT":6.1e-7,"MEAN_MOTION_DDOT":0},{"OBJECT_NAME":"HULIANWANG DIGUI-40","OBJECT_ID":"2025-162A","EPOCH":"2026-03-26T11:15:10.316160","MEAN_MOTION":13.29333725,"ECCENTRICITY":9.57e-5,"INCLINATION":49.999,"RA_OF_ASC_NODE":202.6406,"ARG_OF_PERICENTER":152.6835,"MEAN_ANOMALY":207.4088,"EPHEMERIS_TYPE":0,"CLASSIFICATION_TYPE":"U","NORAD_CAT_ID":65043,"ELEMENT_SET_NO":999,"REV_AT_EPOCH":3234,"BSTAR":6.9508e-5,"MEAN_MOTION_DOT":-9.2e-7,"MEAN_MOTION_DDOT":0},{"OBJECT_NAME":"HULIANWANG DIGUI-41","OBJECT_ID":"2025-162B","EPOCH":"2026-03-26T11:03:08.190144","MEAN_MOTION":13.29334169,"ECCENTRICITY":0.0001,"INCLINATION":50,"RA_OF_ASC_NODE":202.6159,"ARG_OF_PERICENTER":151.3791,"MEAN_ANOMALY":208.7136,"EPHEMERIS_TYPE":0,"CLASSIFICATION_TYPE":"U","NORAD_CAT_ID":65044,"ELEMENT_SET_NO":999,"REV_AT_EPOCH":3235,"BSTAR":8.2767e-5,"MEAN_MOTION_DOT":-8.6e-7,"MEAN_MOTION_DDOT":0},{"OBJECT_NAME":"HULIANWANG DIGUI-42","OBJECT_ID":"2025-162C","EPOCH":"2026-03-26T10:51:04.589280","MEAN_MOTION":13.29333536,"ECCENTRICITY":9.4e-5,"INCLINATION":49.9965,"RA_OF_ASC_NODE":202.5051,"ARG_OF_PERICENTER":153.5349,"MEAN_ANOMALY":206.5571,"EPHEMERIS_TYPE":0,"CLASSIFICATION_TYPE":"U","NORAD_CAT_ID":65045,"ELEMENT_SET_NO":999,"REV_AT_EPOCH":3235,"BSTAR":7.7799e-5,"MEAN_MOTION_DOT":-8.8e-7,"MEAN_MOTION_DDOT":0},{"OBJECT_NAME":"HULIANWANG DIGUI-43","OBJECT_ID":"2025-162D","EPOCH":"2026-03-26T10:38:59.765856","MEAN_MOTION":13.29334636,"ECCENTRICITY":9.25e-5,"INCLINATION":49.9982,"RA_OF_ASC_NODE":202.4961,"ARG_OF_PERICENTER":152.6726,"MEAN_ANOMALY":207.4195,"EPHEMERIS_TYPE":0,"CLASSIFICATION_TYPE":"U","NORAD_CAT_ID":65046,"ELEMENT_SET_NO":999,"REV_AT_EPOCH":3235,"BSTAR":6.9544e-5,"MEAN_MOTION_DOT":-9.2e-7,"MEAN_MOTION_DDOT":0},{"OBJECT_NAME":"HULIANWANG DIGUI-44","OBJECT_ID":"2025-162E","EPOCH":"2026-03-26T12:14:38.344128","MEAN_MOTION":13.29342224,"ECCENTRICITY":4.98e-5,"INCLINATION":50.001,"RA_OF_ASC_NODE":202.233,"ARG_OF_PERICENTER":49.279,"MEAN_ANOMALY":310.8125,"EPHEMERIS_TYPE":0,"CLASSIFICATION_TYPE":"U","NORAD_CAT_ID":65047,"ELEMENT_SET_NO":999,"REV_AT_EPOCH":3237,"BSTAR":9.3664e-5,"MEAN_MOTION_DOT":-8.1e-7,"MEAN_MOTION_DDOT":0},{"OBJECT_NAME":"HULIANWANG DIGUI-45","OBJECT_ID":"2025-162F","EPOCH":"2026-03-26T12:03:15.378912","MEAN_MOTION":13.29334678,"ECCENTRICITY":9.8e-5,"INCLINATION":50.004,"RA_OF_ASC_NODE":202.2503,"ARG_OF_PERICENTER":152.9279,"MEAN_ANOMALY":207.1644,"EPHEMERIS_TYPE":0,"CLASSIFICATION_TYPE":"U","NORAD_CAT_ID":65048,"ELEMENT_SET_NO":999,"REV_AT_EPOCH":3236,"BSTAR":8.9574e-5,"MEAN_MOTION_DOT":-8.2e-7,"MEAN_MOTION_DDOT":0},{"OBJECT_NAME":"HULIANWANG DIGUI-46","OBJECT_ID":"2025-162G","EPOCH":"2026-03-26T11:51:13.730688","MEAN_MOTION":13.29334596,"ECCENTRICITY":9.95e-5,"INCLINATION":50.0057,"RA_OF_ASC_NODE":202.2423,"ARG_OF_PERICENTER":155.0986,"MEAN_ANOMALY":204.9934,"EPHEMERIS_TYPE":0,"CLASSIFICATION_TYPE":"U","NORAD_CAT_ID":65049,"ELEMENT_SET_NO":999,"REV_AT_EPOCH":3236,"BSTAR":0.00010453,"MEAN_MOTION_DOT":-7.6e-7,"MEAN_MOTION_DDOT":0},{"OBJECT_NAME":"HULIANWANG DIGUI-47","OBJECT_ID":"2025-162H","EPOCH":"2026-03-26T11:39:11.595168","MEAN_MOTION":13.29334371,"ECCENTRICITY":9.82e-5,"INCLINATION":50.0022,"RA_OF_ASC_NODE":202.1312,"ARG_OF_PERICENTER":156.4741,"MEAN_ANOMALY":203.6176,"EPHEMERIS_TYPE":0,"CLASSIFICATION_TYPE":"U","NORAD_CAT_ID":65050,"ELEMENT_SET_NO":999,"REV_AT_EPOCH":3236,"BSTAR":6.6596e-5,"MEAN_MOTION_DOT":-9.3e-7,"MEAN_MOTION_DDOT":0},{"OBJECT_NAME":"HULIANWANG DIGUI-48","OBJECT_ID":"2025-162J","EPOCH":"2026-03-26T11:27:12.538080","MEAN_MOTION":13.29333805,"ECCENTRICITY":9.62e-5,"INCLINATION":50.0032,"RA_OF_ASC_NODE":202.1066,"ARG_OF_PERICENTER":154.0322,"MEAN_ANOMALY":206.0598,"EPHEMERIS_TYPE":0,"CLASSIFICATION_TYPE":"U","NORAD_CAT_ID":65051,"ELEMENT_SET_NO":999,"REV_AT_EPOCH":3236,"BSTAR":5.7078e-5,"MEAN_MOTION_DOT":-9.8e-7,"MEAN_MOTION_DDOT":0}]
